STARLINK-31553          
1 59363U 24060R   26068.56793379  .00000087  00000+0  12696-4 0  9991
2 59363  43.0043 253.6587 0001887 285.2179  74.8464 15.27570853110127
TEVEL2-5                
1 63214U 25052E   26068.96660006  .00021339  00000+0  71765-3 0  9991
2 63214  97.4013 325.3677 0004700  95.3936 264.7842 15.30817434 54919
